0 SL-12 DEB
1 25798U 89001K   13281.10270632  .00012900  00000-0  62981-1 0  1761
2 25798 064.7463 087.7989 4660360 181.0367 070.8102 05.71664479300710
0 SL-12 DEB
1 25798U 89001K   13281.86457178  .00010519  00000-0  51269-1 0  1778
2 25798 064.7485 087.3855 4660451 180.9943 198.7351 05.71680348300765
0 SL-12 DEB
1 25798U 89001K   13282.38292927  .00010423  00000-0  50829-1 0  1781
2 25798 064.7480 087.1041 4660079 180.9766 185.4740 05.71722357300799
0 SL-12 DEB
1 25798U 89001K   13283.09473830  .00009738  00000-0  47530-1 0  1797
2 25798 064.7474 086.7178 4659855 180.9398 210.4642 05.71733854300838
0 SL-12 DEB
1 25798U 89001K   13283.60367412  .00018091  00000-0  89897-1 0  1819
2 25798 064.7203 086.4410 4657764 180.8916 178.0148 05.71712991300857
0 SL-12 DEB
1 25798U 89001K   13283.65423094  .00009453  00000-0  46148-1 0  1806
2 25798 064.7477 086.4140 4659758 180.9054 282.0038 05.71738886300865
0 SL-12 DEB
1 25798U 89001K   13283.85748115  .00010329  00000-0  50234-1 0  1818
2 25798 064.7535 086.3042 4660321 180.9031 340.3663 05.71729491300878
0 SL-12 DEB
1 25798U 89001K   13286.83087206  .00013470  00000-0  64739-1 0  1822
2 25798 064.7783 084.6898 4661486 180.7591 340.6201 05.71795552301047
0 SL-12 DEB
1 25798U 89001K   13287.47857148  .00012944  00000-0  62050-1 0  1833
2 25798 064.7841 084.3383 4661607 180.7476 233.8595 05.71833385301085
0 SL-12 DEB
1 25798U 89001K   13287.98874449  .00012258  00000-0  59258-1 0  1847
2 25798 064.7677 084.0638 4660466 180.7239 204.0177 05.71848398301111
0 SL-12 DEB
1 25798U 89001K   13288.75393277  .00011855  00000-0  57267-1 0  1859
2 25798 064.7701 083.6486 4660541 180.6790 339.2640 05.71861486301153
0 SL-12 DEB
1 25798U 89001K   13289.62507089  .00014399  00000-0  69297-1 0  1867
2 25798 064.7778 083.1735 4660881 180.6389 332.6720 05.71892958301200
0 SL-12 DEB
1 25798U 89001K   13291.13723817  .00013624  00000-0  65948-1 0  1875
2 25798 064.7705 082.3534 4659902 180.5695 205.9487 05.71943985301297
0 SL-12 DEB
1 25798U 89001K   13293.83178517  .00016269  00000-0  77668-1 0  1886
2 25798 064.8001 080.8875 4661197 180.4590 354.2105 05.72015594301449
0 SL-12 DEB
1 25798U 89001K   13294.48423645  .00013216  00000-0  63448-1 0  1894
2 25798 064.7845 080.5343 4660150 180.4391 257.6897 05.72067601301482
0 SL-12 DEB
1 25798U 89001K   13294.87991470  .00014060  00000-0  67414-1 0  1900
2 25798 064.7869 080.3195 4660269 180.4311 352.5117 05.72069969301506
